{"type":"FeatureCollection","attribution":"Batas lempeng: Bird (2003) PB2002, konversi H. Ahlenius/Nordpil (ODC-By)","features":[{"type":"Feature","properties":{"nama":"Sunda – Australia","subduksi":true},"geometry":{"type":"LineString","coordinates":[[104.576,-8.167],[104.981,-8.569],[105.59,-8.926],[106.123,-9.24],[106.345,-9.371],[106.827,-9.665],[107.379,-9.89],[107.836,-10.053],[108.363,-10.178],[109.067,-10.328],[109.626,-10.371],[110.159,-10.44],[110.615,-10.477],[111.015,-10.477],[111.523,-10.577],[112.17,-10.652],[112.563,-10.758],[113.204,-10.87],[113.756,-10.964],[114.41,-11.088],[115.013,-11.15],[115.571,-11.219],[116.174,-11.275],[116.853,-11.331],[117.576,-11.337],[118.236,-11.387],[118.75,-11.362],[119.27,-11.393],[119.841,-11.462],[120.451,-11.524],[120.886,-11.492]]}},{"type":"Feature","properties":{"nama":"Timor – Australia","subduksi":false},"geometry":{"type":"LineString","coordinates":[[120.886,-11.492],[121.11,-11.493],[121.783,-11.412],[122.627,-11.188],[123.217,-10.995],[123.96,-10.708],[124.734,-10.39],[125.159,-10.159],[125.482,-9.984],[125.869,-9.784],[126.333,-9.596],[126.853,-9.39],[127.43,-9.221],[127.9,-9.133],[128.376,-9.095],[129.106,-9.02],[129.861,-8.926],[130.54,-8.726],[130.933,-8.562],[131.415,-8.267]]}},{"type":"Feature","properties":{"nama":"Timor – Australia","subduksi":false},"geometry":{"type":"LineString","coordinates":[[131.415,-8.267],[131.867,-7.661],[132.431,-6.989],[132.689,-6.681]]}},{"type":"Feature","properties":{"nama":"Woodlark – Maoke","subduksi":false},"geometry":{"type":"LineString","coordinates":[[138.972,-1.607],[139.205,-2.093],[139.439,-2.578],[139.809,-3.178],[140.07,-3.645],[140.328,-4.045],[140.566,-4.586],[140.798,-5.11]]}},{"type":"Feature","properties":{"nama":"Woodlark – Australia","subduksi":false},"geometry":{"type":"LineString","coordinates":[[140.798,-5.11],[140.847,-5.145],[141.483,-5.727],[142.231,-5.986],[142.956,-6.295],[143.569,-6.558],[144.136,-6.813],[144.74,-7.023],[145.249,-7.374],[145.666,-7.661],[146.398,-8.103],[146.918,-8.41],[146.954,-8.598]]}},{"type":"Feature","properties":{"nama":"Laut Filipina – Caroline","subduksi":false},"geometry":{"type":"LineString","coordinates":[[134.521,6.99],[135.415,6.895],[136.183,6.989],[136.759,7.368],[137.144,7.62],[137.529,7.871],[137.982,8.534],[138.309,9.196],[138.359,9.379]]}},{"type":"Feature","properties":{"nama":"Laut Filipina – Pasifik","subduksi":true},"geometry":{"type":"LineString","coordinates":[[138.359,9.379],[138.574,9.953],[138.71,10.649],[138.813,11.121],[139.483,10.901],[140.1,10.946],[140.772,10.858],[141.608,11.058],[142.122,11.285],[142.961,11.403],[143.097,11.569]]}},{"type":"Feature","properties":{"nama":"Mariana – Pasifik","subduksi":true},"geometry":{"type":"LineString","coordinates":[[143.097,11.569],[143.503,11.494],[144.157,11.79],[144.619,12.021],[145.024,12.211],[145.349,12.314],[145.691,12.647],[146.221,13.002],[146.752,13.363],[147.201,14.216],[147.462,14.966],[147.684,15.653],[147.787,16.523],[147.856,17.283],[147.811,18.06],[147.82,18.647],[147.619,19.172],[147.46,19.745],[147.207,20.303],[147.019,20.805],[146.822,21.331],[146.545,21.73],[146.062,22.202],[145.292,22.712],[144.706,23.25],[144.022,23.764],[143.522,24.391]]}},{"type":"Feature","properties":{"nama":"Burma – India","subduksi":true},"geometry":{"type":"LineString","coordinates":[[92.278,6.948],[92.376,6.333],[92.538,5.702],[92.665,5.005],[92.903,4.384],[93.227,3.716],[93.754,3.048],[94.405,2.457],[94.979,2.104]]}},{"type":"Feature","properties":{"nama":"Burma – Australia","subduksi":true},"geometry":{"type":"LineString","coordinates":[[94.979,2.104],[95.542,1.882],[96.089,1.487],[96.202,1.345]]}},{"type":"Feature","properties":{"nama":"Sunda – Australia","subduksi":true},"geometry":{"type":"LineString","coordinates":[[96.202,1.345],[96.38,1.123],[96.67,0.759],[97.011,0.116],[97.372,-0.547],[97.77,-1.247],[98.035,-1.634],[98.301,-2.021],[98.874,-2.665],[99.37,-3.311],[99.675,-3.729],[99.98,-4.145],[100.359,-4.656],[100.791,-5.305],[101.346,-5.983],[101.858,-6.558],[102.452,-7.197],[103.183,-7.621],[103.763,-7.863],[104.576,-8.167]]}},{"type":"Feature","properties":{"nama":"Laut Filipina – Sunda","subduksi":true},"geometry":{"type":"LineString","coordinates":[[124.891,14.704],[125.15,14.132],[125.494,13.306],[125.686,12.818],[126.137,12.265],[126.24,11.63],[126.214,11.06],[126.573,10.296],[126.824,9.449],[127.053,8.75],[127.219,8.136],[127.234,7.292],[127.25,6.447],[127.459,5.897],[127.498,5.474],[127.836,5.224],[128.151,4.763],[128.387,4.335],[128.684,3.7],[128.998,3.114],[129.217,2.671],[129.246,1.928],[129.197,1.059]]}},{"type":"Feature","properties":{"nama":"Sunda – Kepala Burung","subduksi":false},"geometry":{"type":"LineString","coordinates":[[126.872,2.346],[127.446,2.319],[128.081,2.29],[128.187,1.974],[128.752,1.623],[129.197,1.059]]}},{"type":"Feature","properties":{"nama":"Kepala Burung – Sunda","subduksi":true},"geometry":{"type":"LineString","coordinates":[[126.872,2.346],[126.426,1.706]]}},{"type":"Feature","properties":{"nama":"Laut Maluku – Sunda","subduksi":true},"geometry":{"type":"LineString","coordinates":[[126.426,1.706],[126.144,1.001],[125.969,0.19]]}},{"type":"Feature","properties":{"nama":"Laut Maluku – Sunda","subduksi":true},"geometry":{"type":"LineString","coordinates":[[123.43,2.006],[123.219,2.024],[122.48,2.377],[121.669,2.309],[120.824,2.311],[120.189,2.208],[119.696,2.033],[119.306,1.577],[119.249,0.714],[119.475,-0.081]]}},{"type":"Feature","properties":{"nama":"Laut Maluku – Laut Banda","subduksi":false},"geometry":{"type":"LineString","coordinates":[[119.475,-0.081],[119.896,-0.859],[120.388,-1.461],[120.811,-1.71],[121.234,-1.959],[121.728,-2.154],[122.223,-2.35],[122.823,-2.598],[123.424,-2.846],[123.672,-3.094],[123.706,-3.941],[123.458,-4.576],[124.06,-4.701],[124.662,-4.824],[125.282,-4.789],[125.901,-4.754],[126.432,-4.471],[126.963,-4.188],[127.325,-3.719]]}},{"type":"Feature","properties":{"nama":"Laut Maluku – Laut Banda","subduksi":false},"geometry":{"type":"LineString","coordinates":[[127.325,-3.719],[127.51,-3.163],[127.667,-2.447],[127.666,-1.758]]}},{"type":"Feature","properties":{"nama":"Laut Maluku – Kepala Burung","subduksi":true},"geometry":{"type":"LineString","coordinates":[[125.969,-0.278],[125.969,0.19],[126.144,1.001],[126.426,1.706]]}},{"type":"Feature","properties":{"nama":"Laut Banda – Sunda","subduksi":true},"geometry":{"type":"LineString","coordinates":[[119.475,-0.081],[119.296,-0.68],[119.045,-1.491],[118.884,-1.95],[118.723,-2.408],[118.578,-3.255],[118.823,-3.61]]}},{"type":"Feature","properties":{"nama":"Laut Banda – Sunda","subduksi":false},"geometry":{"type":"LineString","coordinates":[[118.823,-3.61],[119.565,-3.966],[119.953,-4.303],[120.341,-4.64],[120.516,-5.276],[120.62,-6.122],[120.546,-6.968],[120.543,-7.812]]}},{"type":"Feature","properties":{"nama":"Laut Banda – Australia","subduksi":false},"geometry":{"type":"LineString","coordinates":[[132.689,-6.681],[133.188,-6.515],[133.686,-6.348],[133.982,-5.641],[133.449,-5.344],[133.906,-4.812]]}},{"type":"Feature","properties":{"nama":"Laut Maluku – Kepala Burung","subduksi":false},"geometry":{"type":"LineString","coordinates":[[127.666,-1.758],[127.241,-1.388],[126.817,-1.018],[126.393,-0.648],[125.969,-0.278]]}},{"type":"Feature","properties":{"nama":"Kepala Burung – Laut Banda","subduksi":false},"geometry":{"type":"LineString","coordinates":[[127.666,-1.758],[128.383,-2.286]]}},{"type":"Feature","properties":{"nama":"Kepala Burung – Laut Banda","subduksi":true},"geometry":{"type":"LineString","coordinates":[[128.383,-2.286],[129.258,-2.416],[130.107,-2.519],[130.585,-2.694],[131.063,-2.868],[131.489,-3.149],[131.915,-3.429],[132.316,-3.935],[132.717,-4.44]]}},{"type":"Feature","properties":{"nama":"Kepala Burung – Laut Banda","subduksi":false},"geometry":{"type":"LineString","coordinates":[[132.717,-4.44],[133.311,-4.626],[133.906,-4.812]]}},{"type":"Feature","properties":{"nama":"Sunda – Timor","subduksi":false},"geometry":{"type":"LineString","coordinates":[[120.886,-11.492],[120.995,-10.829],[121.033,-10.165],[120.821,-9.586],[120.61,-9.007],[120.576,-8.41],[120.543,-7.812]]}},{"type":"Feature","properties":{"nama":"Laut Banda – Timor","subduksi":false},"geometry":{"type":"LineString","coordinates":[[120.543,-7.812],[121.253,-7.99],[121.891,-8.062],[122.673,-7.853],[123.383,-7.784],[124.235,-7.784],[124.75,-7.644],[125.264,-7.503],[125.761,-7.433],[126.258,-7.309],[126.755,-7.185],[127.393,-7.184],[127.854,-6.99],[128.315,-6.795],[128.776,-6.565],[129.236,-6.334],[129.839,-6.526],[130.443,-6.717],[131.01,-6.68],[131.577,-6.642],[132.133,-6.662],[132.689,-6.681]]}},{"type":"Feature","properties":{"nama":"Kepala Burung – Caroline","subduksi":true},"geometry":{"type":"LineString","coordinates":[[138.793,-1.159],[138.674,-0.82],[138.054,-0.718],[137.435,-0.616],[136.943,-0.422],[136.451,-0.228],[135.656,-0.023],[134.938,0.421],[134.471,0.259],[133.899,0.057],[133.327,-0.146],[132.824,-0.043],[132.515,0.017]]}},{"type":"Feature","properties":{"nama":"Kepala Burung – Laut Filipina","subduksi":true},"geometry":{"type":"LineString","coordinates":[[132.515,0.017],[132.373,0.034],[131.738,0.15],[131.102,0.266],[130.546,0.475],[129.989,0.684],[129.197,1.059]]}},{"type":"Feature","properties":{"nama":"Australia – Maoke","subduksi":false},"geometry":{"type":"LineString","coordinates":[[140.798,-5.11],[140.264,-4.931],[139.731,-4.751],[138.959,-4.548],[138.484,-4.442],[138.01,-4.337],[137.177,-4.221],[136.672,-4.199],[136.167,-4.177],[135.459,-4.218],[134.966,-4.298]]}},{"type":"Feature","properties":{"nama":"Australia – Kepala Burung","subduksi":false},"geometry":{"type":"LineString","coordinates":[[134.966,-4.298],[134.488,-4.437],[133.906,-4.812]]}},{"type":"Feature","properties":{"nama":"Maoke – Kepala Burung","subduksi":false},"geometry":{"type":"LineString","coordinates":[[138.972,-1.607],[138.488,-1.754],[138.003,-1.9],[137.634,-2.08],[137.282,-2.295],[136.931,-2.493],[136.562,-2.796],[136.167,-3.1],[135.771,-3.403],[135.262,-3.849],[134.966,-4.298]]}},{"type":"Feature","properties":{"nama":"Sunda – Burma","subduksi":false},"geometry":{"type":"LineString","coordinates":[[96.48,14.4],[96.503,14.129],[95.857,13.783],[95.505,12.918],[95.155,12.053],[94.807,11.188],[94.415,10.679],[94.024,10.17],[94.216,9.717],[94.415,9.27],[93.986,9.019],[94.171,8.686],[94.429,8.312],[94.775,7.847],[94.46,7.603],[94.883,7.139],[94.498,6.837],[94.95,6.259],[95.435,5.715],[96.014,5.114],[96.567,4.644],[96.601,3.772],[96.697,2.979],[96.783,2.185],[96.743,1.763],[96.202,1.345]]}},{"type":"Feature","properties":{"nama":"India – Burma","subduksi":true},"geometry":{"type":"LineString","coordinates":[[92.278,6.948],[91.903,7.663],[91.781,8.16],[91.651,8.656],[91.596,9.13],[91.533,9.604],[91.559,10.056],[91.576,10.514],[91.591,11.3],[91.643,11.792],[91.7,12.283],[91.889,13.154],[92.068,13.715]]}},{"type":"Feature","properties":{"nama":"Laut Maluku – Sunda","subduksi":true},"geometry":{"type":"LineString","coordinates":[[125.969,0.19],[125.616,-0.128],[125.263,-0.446]]}},{"type":"Feature","properties":{"nama":"Laut Maluku – Sunda","subduksi":false},"geometry":{"type":"LineString","coordinates":[[125.263,-0.446],[124.857,-0.269],[124.416,0.013],[124.01,0.437],[123.746,0.843],[123.535,1.354],[123.448,1.812],[123.43,2.006]]}},{"type":"Feature","properties":{"nama":"India – Australia","subduksi":false},"geometry":{"type":"LineString","coordinates":[[68.274,-6.811],[69.007,-6.538],[69.806,-6.445],[70.292,-6.474],[70.786,-6.502],[71.313,-6.599],[71.834,-6.696],[72.355,-6.867],[72.884,-7.038],[73.392,-7.039],[73.544,-6.191],[73.704,-5.778],[73.77,-4.927],[73.883,-4.307],[74.358,-4.411],[74.833,-4.514],[75.518,-4.776],[76.203,-5.038],[76.779,-5.046],[77.356,-5.055],[77.981,-4.994],[78.606,-4.932],[79.141,-4.752],[79.676,-4.573],[80.374,-4.393],[81.072,-4.213],[81.701,-4.031],[82.33,-3.848],[82.796,-3.641],[83.263,-3.433],[83.729,-3.225],[84.195,-3.017],[84.987,-3.181],[85.779,-3.344],[86.501,-3.716],[87.225,-4.088],[87.923,-3.529],[88.62,-2.969],[88.828,-2.271],[89.036,-1.574],[89.43,-1.179],[89.825,-0.783],[90.63,-0.45],[91.436,-0.117],[92.241,0.216],[93.046,0.549],[93.852,0.882],[94.415,1.493],[94.979,2.104]]}},{"type":"Feature","properties":{"nama":"Caroline – Laut Filipina","subduksi":false},"geometry":{"type":"LineString","coordinates":[[134.521,6.99],[134.269,6.61],[133.989,6.333],[133.674,6.156],[133.429,5.962],[133.308,5.734],[133.24,5.349],[133.189,5.016],[133.032,4.788],[132.911,4.454],[132.79,4.12],[132.74,3.698],[132.795,3.312],[132.85,2.908],[132.817,2.539],[132.766,2.257],[132.734,1.728],[132.72,1.165],[132.651,0.812],[132.515,0.017]]}},{"type":"Feature","properties":{"nama":"Pasifik – Caroline","subduksi":false},"geometry":{"type":"LineString","coordinates":[[138.359,9.379],[139.192,9.065],[139.886,8.866],[140.579,8.666],[141.048,8.393],[141.517,8.118],[142.262,7.611],[142.666,7.388],[143.07,7.166],[143.558,6.805],[144.026,6.677],[144.664,6.611],[145.067,6.503],[145.471,6.353],[146.001,6.16],[146.382,5.883],[146.73,5.511],[147.078,5.138],[147.425,4.765],[147.772,4.393],[148.191,3.776],[148.694,3.137],[148.668,2.629],[148.684,2.058],[148.7,1.487],[148.863,0.937],[149.112,0.406],[149.191,-0.143],[149.251,-0.397],[149.27,-0.65]]}},{"type":"Feature","properties":{"nama":"Caroline – Bismarck Utara","subduksi":false},"geometry":{"type":"LineString","coordinates":[[142.246,-2.693],[142.394,-2.462],[142.626,-1.916],[142.922,-1.454],[143.26,-1.16],[143.808,-0.951],[144.357,-0.742],[145.033,-0.534],[145.497,-0.473],[145.919,-0.349],[146.595,-0.29],[147.059,-0.294],[147.354,-0.275],[147.859,-0.426],[148.344,-0.409],[148.724,-0.392],[148.913,-0.457],[149.27,-0.65]]}},{"type":"Feature","properties":{"nama":"Caroline – Woodlark","subduksi":true},"geometry":{"type":"LineString","coordinates":[[138.793,-1.159],[139.257,-1.39],[139.805,-1.557],[140.226,-1.767],[140.837,-1.893],[141.195,-2.167],[141.594,-2.272],[141.868,-2.398],[142.246,-2.693]]}},{"type":"Feature","properties":{"nama":"Woodlark – Kepala Burung","subduksi":false},"geometry":{"type":"LineString","coordinates":[[138.793,-1.159],[138.972,-1.607]]}},{"type":"Feature","properties":{"nama":"Bismarck Utara – Bismarck Selatan","subduksi":false},"geometry":{"type":"LineString","coordinates":[[143.743,-3.46],[144.368,-3.531],[144.807,-3.55],[145.399,-3.485],[146.11,-3.471],[146.415,-3.438],[146.836,-3.755],[146.918,-3.641],[146.999,-3.514],[147.083,-3.385],[147.162,-3.261],[147.241,-3.152],[147.325,-3.053],[147.407,-2.962],[147.478,-2.909],[147.539,-2.881],[147.605,-2.879],[147.816,-2.813],[147.983,-2.922],[148.123,-3.026],[148.329,-3.141],[148.499,-3.222],[148.675,-3.306],[148.878,-3.395],[149.089,-3.466],[149.295,-3.522],[149.453,-3.544],[149.603,-3.57],[149.717,-3.58],[149.773,-3.592],[149.816,-3.618]]}},{"type":"Feature","properties":{"nama":"Bismarck Utara – Woodlark","subduksi":true},"geometry":{"type":"LineString","coordinates":[[142.246,-2.693],[142.449,-2.814],[142.633,-2.932],[142.936,-3.018],[143.172,-3.053],[143.508,-3.156],[143.743,-3.46]]}},{"type":"Feature","properties":{"nama":"Bismarck Selatan – Woodlark","subduksi":false},"geometry":{"type":"LineString","coordinates":[[143.743,-3.46],[144.079,-3.766],[144.416,-4.004],[144.583,-4.376],[144.733,-4.697],[144.867,-4.968],[145.007,-5.202],[145.505,-5.762],[146.007,-6.112],[146.497,-6.513],[146.956,-6.718],[147.476,-7.103],[148.01,-7.312],[148.587,-7.395]]}},{"type":"Feature","properties":{"nama":"Laut Filipina – Mariana","subduksi":false},"geometry":{"type":"LineString","coordinates":[[143.097,11.569],[143.082,11.792],[143.106,12.03],[143.143,12.265],[143.239,12.478],[143.403,12.695],[143.51,12.822],[143.662,13.058],[143.771,13.268],[143.871,13.541],[143.903,13.624],[143.942,13.811],[143.976,14.087],[144.082,14.639],[144.216,14.656],[144.334,14.885],[144.53,14.917],[144.453,15.526],[144.799,15.653],[144.792,16.123],[144.841,16.478],[144.798,16.979],[144.671,17.42],[144.97,17.535],[144.773,17.83],[144.706,18.02],[144.663,18.166],[144.626,18.359],[144.601,18.756],[144.543,19.073],[144.527,19.123],[144.252,19.725],[144.137,19.753],[144.083,19.858],[143.97,20.111],[143.842,20.418],[143.575,20.397],[143.493,20.533],[143.392,20.728],[143.281,20.962],[143.321,21.061],[143.28,21.32],[143.218,21.659],[143.15,21.928],[142.997,22.139],[142.774,22.377],[142.56,22.662],[142.257,23.009]]}}]}
